ONEWEB-0607             
1 54671U 22166AF  26158.73980051 -.00000110  00000+0 -29746-3 0  9999
2 54671  87.9263 245.8494 0002024  94.7898 265.3468 13.21824504170292
ONEWEB-0608             
1 54672U 22166AG  26158.74654808  .00000025  00000+0  28243-4 0  9994
2 54672  87.9270 245.8445 0002433  90.5433 269.5979 13.21827518170303
ONEWEB-0610             
1 54673U 22166AH  26158.72634407  .00000022  00000+0  21387-4 0  9995
2 54673  87.9256 245.8635 0002343  84.9224 275.2178 13.21828196170201
ONEWEB-0611             
1 54674U 22166AJ  26158.71962340  .00000025  00000+0  30188-4 0  9997
2 54674  87.9257 245.8612 0001981 102.7811 257.3544 13.21827106170192
ONEWEB-0612             
1 54675U 22166AK  26158.73308602  .00000014  00000+0  34611-5 0  9999
2 54675  87.9268 245.8528 0002153  95.8749 264.2630 13.21824507170189
ONEWEB-0615             
1 54676U 22166AL  26158.71291303  .00000019  00000+0  15702-4 0  9991
2 54676  87.9258 245.8721 0001775 104.1388 255.9944 13.21826013170196
ONEWEB-0655             
1 54677U 22166AM  26158.76505847 -.00000013  00000+0 -63394-4 0  9994
2 54677  87.9257 245.8633 0001877  92.6937 267.4412 13.21826551170197
ONEWEB-0659             
1 54678U 22166AN  26158.70618579 -.00001836  00000+0 -44791-2 0  9998
2 54678  87.9252 245.8742 0002090 100.9357 259.2012 13.21809653170279
ONEWEB-0685             
1 54679U 22166AP  26158.70641696  .00001436  00000+0  34445-2 0  9994
2 54679  87.9252 245.8672 0002162  89.7905 270.3476 13.21837965170168
ONEWEB-0712             
1 54680U 22166AQ  26158.71239188  .00000118  00000+0  27465-3 0  9997
2 54680  87.9103 230.6552 0001699  87.4267 272.7058 13.16594229170815
ONEWEB-0714             
1 54681U 22166AR  26158.71120492 -.00001958  00000+0 -47731-2 0  9997
2 54681  87.9254 245.8634 0001968  95.4508 264.6850 13.21836940170284
ONEWEB-0532             
1 55140U 23004A   26158.84506479  .00000000  00000+0 -34057-4 0  9992
2 55140  87.9141   7.7239 0002189  90.5539 269.5843 13.17647763166359
ONEWEB-0533             
1 55141U 23004B   26158.77529059  .00000108  00000+0  26449-3 0  9997
2 55141  87.8947 352.5427 0001905  83.1058 277.0287 13.12442078166827
ONEWEB-0541             
1 55142U 23004C   26158.64519941 -.00000515  00000+0 -14902-2 0  9997
2 55142  87.8905  22.9566 0001790  90.4941 269.6392 13.11417177164696
ONEWEB-0543             
1 55143U 23004D   26158.75517955  .00000047  00000+0  85762-4 0  9995
2 55143  87.9159 337.3477 0001679  87.0562 273.0762 13.18684592168452
ONEWEB-0544             
1 55144U 23004E   26158.74843742  .00000326  00000+0  79368-3 0  9995
2 55144  87.9159 337.3477 0001578  95.7274 264.4038 13.18689134168454
ONEWEB-0560             
1 55145U 23004F   26158.74170050  .00000002  00000+0 -27227-4 0  9991
2 55145  87.9159 337.3388 0001550  93.5205 266.6105 13.18686739168464
ONEWEB-0565             
1 55146U 23004G   26158.73494810 -.00000046  00000+0 -15001-3 0  9999
2 55146  87.9149 337.3690 0001875 104.4614 255.6727 13.18685590168457
ONEWEB-0567             
1 55147U 23004H   26158.72820955  .00000025  00000+0  29699-4 0  9996
2 55147  87.9159 337.3539 0001727 102.4678 257.6647 13.18685437168458
ONEWEB-0569             
1 55148U 23004J   26158.71445057 -.00000263  00000+0 -75625-3 0  9997
2 55148  87.8957 322.1057 0001218 120.2686 239.8564 13.13469379168936
ONEWEB-0570             
1 55149U 23004K   26158.71976384  .00000068  00000+0  13860-3 0  9994
2 55149  87.9156 337.3535 0002180  97.2387 262.8993 13.18684785168441
ONEWEB-0571             
1 55150U 23004L   26158.78891220 -.00000751  00000+0 -19383-2 0  9994
2 55150  87.9158 337.3393 0001809 130.6848 229.4441 13.18677157168462
ONEWEB-0572             
1 55151U 23004M   26158.57169000  .00000053  00000+0  10214-3 0  9994
2 55151  87.9140   7.7787 0001833  93.6769 266.4572 13.17648410166212
ONEWEB-0573             
1 55152U 23004N   26158.78215987  .00000006  00000+0 -17254-4 0  9995
2 55152  87.9158 337.3419 0001854 119.1840 240.9478 13.18685702168459
ONEWEB-0588             
1 55153U 23004P   26158.77540899  .00000095  00000+0  20697-3 0  9999
2 55153  87.9157 337.3436 0002232 100.0640 260.0744 13.18684474168450
ONEWEB-0598             
1 55154U 23004Q   26158.85205670  .00000372  00000+0  10136-2 0  9998
2 55154  87.8894  22.9270 0001345 105.8410 254.2866 13.11415805164676
ONEWEB-0599             
1 55155U 23004R   26158.83662741 -.00000002  00000+0 -38324-4 0  9996
2 55155  87.9140   7.7249 0001628  83.6873 276.4444 13.17648143166252
ONEWEB-0614             
1 55156U 23004S   26158.84696742  .00000511  00000+0  14064-2 0  9992
2 55156  87.8897  22.9368 0002012  83.3840 276.7517 13.11417135164612
ONEWEB-0616             
1 55157U 23004T   26158.57507475 -.00000054  00000+0 -17163-3 0  9995
2 55157  87.9145   7.7800 0001245  59.0297 301.0957 13.17649182166432
ONEWEB-0617             
1 55158U 23004U   26158.68251312  .00000519  00000+0  14272-2 0  9995
2 55158  87.8899  22.9602 0002223  88.9290 271.2092 13.11418192164613
ONEWEB-0618             
1 55159U 23004V   26158.79988152  .00005412  00000+0  30389-3 0  9992
2 55159  86.9102 181.4455 0010809 341.3487  18.7355 15.13075039180843
