OBJECT_NAME,OBJECT_ID,EPOCH,MEAN_MOTION,ECCENTRICITY,INCLINATION,RA_OF_ASC_NODE,ARG_OF_PERICENTER,MEAN_ANOMALY,EPHEMERIS_TYPE,CLASSIFICATION_TYPE,NORAD_CAT_ID,ELEMENT_SET_NO,REV_AT_EPOCH,BSTAR,MEAN_MOTION_DOT,MEAN_MOTION_DDOT
ONEWEB-0607,2022-166AF,2026-06-07T17:45:18.764064,13.21824504,.0002024,87.9263,245.8494,94.7898,265.3468,0,U,54671,999,17029,-.29746E-3,-.11E-5,0
ONEWEB-0608,2022-166AG,2026-06-07T17:55:01.754112,13.21827518,.0002433,87.9270,245.8445,90.5433,269.5979,0,U,54672,999,17030,.28243E-4,.25E-6,0
ONEWEB-0610,2022-166AH,2026-06-07T17:25:56.127648,13.21828196,.0002343,87.9256,245.8635,84.9224,275.2178,0,U,54673,999,17020,.21387E-4,.22E-6,0
ONEWEB-0611,2022-166AJ,2026-06-07T17:16:15.461760,13.21827106,.0001981,87.9257,245.8612,102.7811,257.3544,0,U,54674,999,17019,.30188E-4,.25E-6,0
ONEWEB-0612,2022-166AK,2026-06-07T17:35:38.632128,13.21824507,.0002153,87.9268,245.8528,95.8749,264.2630,0,U,54675,999,17018,.34611E-5,.14E-6,0
ONEWEB-0615,2022-166AL,2026-06-07T17:06:35.685792,13.21826013,.0001775,87.9258,245.8721,104.1388,255.9944,0,U,54676,999,17019,.15702E-4,.19E-6,0
ONEWEB-0655,2022-166AM,2026-06-07T18:21:41.051808,13.21826551,.0001877,87.9257,245.8633,92.6937,267.4412,0,U,54677,999,17019,-.63394E-4,-.13E-6,0
ONEWEB-0659,2022-166AN,2026-06-07T16:56:54.452256,13.21809653,.000209,87.9252,245.8742,100.9357,259.2012,0,U,54678,999,17027,-.44791E-2,-.1836E-4,0
ONEWEB-0685,2022-166AP,2026-06-07T16:57:14.425344,13.21837965,.0002162,87.9252,245.8672,89.7905,270.3476,0,U,54679,999,17016,.34445E-2,.1436E-4,0
ONEWEB-0712,2022-166AQ,2026-06-07T17:05:50.658432,13.16594229,.0001699,87.9103,230.6552,87.4267,272.7058,0,U,54680,999,17081,.27465E-3,.118E-5,0
ONEWEB-0714,2022-166AR,2026-06-07T17:04:08.105088,13.21836940,.0001968,87.9254,245.8634,95.4508,264.6850,0,U,54681,999,17028,-.47731E-2,-.1958E-4,0
ONEWEB-0532,2023-004A,2026-06-07T20:16:53.597856,13.17647763,.0002189,87.9141,7.7239,90.5539,269.5843,0,U,55140,999,16635,-.34057E-4,0,0
ONEWEB-0533,2023-004B,2026-06-07T18:36:25.106976,13.12442078,.0001905,87.8947,352.5427,83.1058,277.0287,0,U,55141,999,16682,.26449E-3,.108E-5,0
ONEWEB-0541,2023-004C,2026-06-07T15:29:05.229024,13.11417177,.000179,87.8905,22.9566,90.4941,269.6392,0,U,55142,999,16469,-.14902E-2,-.515E-5,0
ONEWEB-0543,2023-004D,2026-06-07T18:07:27.513120,13.18684592,.0001679,87.9159,337.3477,87.0562,273.0762,0,U,55143,999,16845,.85762E-4,.47E-6,0
ONEWEB-0544,2023-004E,2026-06-07T17:57:44.993088,13.18689134,.0001578,87.9159,337.3477,95.7274,264.4038,0,U,55144,999,16845,.79368E-3,.326E-5,0
ONEWEB-0560,2023-004F,2026-06-07T17:48:02.923200,13.18686739,.000155,87.9159,337.3388,93.5205,266.6105,0,U,55145,999,16846,-.27227E-4,.2E-7,0
ONEWEB-0565,2023-004G,2026-06-07T17:38:19.515840,13.18685590,.0001875,87.9149,337.3690,104.4614,255.6727,0,U,55146,999,16845,-.15001E-3,-.46E-6,0
ONEWEB-0567,2023-004H,2026-06-07T17:28:37.305120,13.18685437,.0001727,87.9159,337.3539,102.4678,257.6647,0,U,55147,999,16845,.29699E-4,.25E-6,0
ONEWEB-0569,2023-004J,2026-06-07T17:08:48.529248,13.13469379,.0001218,87.8957,322.1057,120.2686,239.8564,0,U,55148,999,16893,-.75625E-3,-.263E-5,0
ONEWEB-0570,2023-004K,2026-06-07T17:16:27.595776,13.18684785,.000218,87.9156,337.3535,97.2387,262.8993,0,U,55149,999,16844,.1386E-3,.68E-6,0
ONEWEB-0571,2023-004L,2026-06-07T18:56:02.014080,13.18677157,.0001809,87.9158,337.3393,130.6848,229.4441,0,U,55150,999,16846,-.19383E-2,-.751E-5,0
ONEWEB-0572,2023-004M,2026-06-07T13:43:14.016000,13.17648410,.0001833,87.9140,7.7787,93.6769,266.4572,0,U,55151,999,16621,.10214E-3,.53E-6,0
ONEWEB-0573,2023-004N,2026-06-07T18:46:18.612768,13.18685702,.0001854,87.9158,337.3419,119.1840,240.9478,0,U,55152,999,16845,-.17254E-4,.6E-7,0
ONEWEB-0588,2023-004P,2026-06-07T18:36:35.336736,13.18684474,.0002232,87.9157,337.3436,100.0640,260.0744,0,U,55153,999,16845,.20697E-3,.95E-6,0
ONEWEB-0598,2023-004Q,2026-06-07T20:26:57.698880,13.11415805,.0001345,87.8894,22.9270,105.8410,254.2866,0,U,55154,999,16467,.10136E-2,.372E-5,0
ONEWEB-0599,2023-004R,2026-06-07T20:04:44.608224,13.17648143,.0001628,87.9140,7.7249,83.6873,276.4444,0,U,55155,999,16625,-.38324E-4,-.2E-7,0
ONEWEB-0614,2023-004S,2026-06-07T20:19:37.985088,13.11417135,.0002012,87.8897,22.9368,83.3840,276.7517,0,U,55156,999,16461,.14064E-2,.511E-5,0
ONEWEB-0616,2023-004T,2026-06-07T13:48:06.458400,13.17649182,.0001245,87.9145,7.7800,59.0297,301.0957,0,U,55157,999,16643,-.17163E-3,-.54E-6,0
ONEWEB-0617,2023-004U,2026-06-07T16:22:49.133568,13.11418192,.0002223,87.8899,22.9602,88.9290,271.2092,0,U,55158,999,16461,.14272E-2,.519E-5,0
ONEWEB-0618,2023-004V,2026-06-07T19:11:49.763328,15.13075039,.0010809,86.9102,181.4455,341.3487,18.7355,0,U,55159,999,18084,.30389E-3,.5412E-4,0
